SL-16 R/B               
1 25400U 98043G   26053.71662289  .00000078  00000+0  51577-4 0  9995
2 25400  98.8228   6.9763 0010833  60.6845 299.5416 14.26045961436855
SL-16 R/B               
1 25407U 98045B   26053.88149752 -.00000010  00000+0  18965-4 0  9998
2 25407  71.0101 212.7132 0005961  32.6511 327.4980 14.16191356425008
ISS (ZARYA)             
1 25544U 98067A   26053.73352465  .00014029  00000+0  26931-3 0  9990
2 25544  51.6318 146.2856 0008481 123.1422 237.0381 15.48216789554014
CZ-4B R/B               
1 25732U 99025C   26053.71861458  .00000026  00000+0  33244-4 0  9997
2 25732  98.6660  98.3526 0037547  29.5627  79.7911 14.18262113386040
OKEAN-O                 
1 25860U 99039A   26053.91648302  .00000683  00000+0  96444-4 0  9997
2 25860  97.9477 113.9558 0001637  77.4875 282.6520 14.80309496432203
SL-16 R/B               
1 25861U 99039B   26053.70769652  .00000548  00000+0  76301-4 0  9997
2 25861  98.0001 112.8242 0013678 309.4863  50.5139 14.81708598434645
DELTA 2 R/B             
1 25876U 99041E   26053.85834302  .00001807  00000+0  32825-3 0  9998
2 25876  51.7660   0.5113 0502208 304.6365  50.8181 14.11780962360932
HELIOS 1B               
1 25977U 99064A   26053.78202682  .00001786  00000+0  20282-3 0  9997
2 25977  98.1711 315.5863 0002447  95.0929 265.0566 14.87630971683048
TERRA                   
1 25994U 99068A   26053.94333914  .00000443  00000+0  99309-4 0  9997
2 25994  97.9626 107.9391 0001655 191.6025 341.3580 14.60997353392927
SL-16 R/B               
1 26070U 00006B   26053.89306364  .00000172  00000+0  11141-3 0  9996
2 26070  71.0021 128.9511 0017702 210.5920 149.4172 14.15819191346462
TITAN 4B R/B            
1 26474U 00047B   26053.92023175  .00003767  00000+0  23948-3 0  9990
2 26474  67.9882  82.0383 0037715  53.1807 307.2791 15.09415021390689
ENVISAT                 
1 27386U 02009A   26053.86263475  .00000128  00000+0  55327-4 0  9990
2 27386  98.3702   7.8154 0001353  86.5125 289.3797 14.39030798257048
