CCSDS_OMM_VERS = 2.0
CREATION_DATE  = 
ORIGINATOR     = 

OBJECT_NAME    = SL-16 R/B
OBJECT_ID      = 1998-043G
CENTER_NAME    = EARTH
REF_FRAME      = TEME
TIME_SYSTEM    = UTC
MEAN_ELEMENT_THEORY = SGP/SGP4

EPOCH          = 2026-02-22T17:11:56.217696
MEAN_MOTION    = 14.26045961
ECCENTRICITY   = .00108338
INCLINATION    = 98.8228
RA_OF_ASC_NODE = 6.9763
ARG_OF_PERICENTER = 60.6845
MEAN_ANOMALY   = 299.5416

EPHEMERIS_TYPE = 0
CLASSIFICATION_TYPE = U
NORAD_CAT_ID   = 25400
ELEMENT_SET_NO = 999
REV_AT_EPOCH   = 43685
BSTAR          = .51577498E-4
MEAN_MOTION_DOT = .78E-6
MEAN_MOTION_DDOT = 0

CCSDS_OMM_VERS = 2.0
CREATION_DATE  = 
ORIGINATOR     = 

OBJECT_NAME    = SL-16 R/B
OBJECT_ID      = 1998-045B
CENTER_NAME    = EARTH
REF_FRAME      = TEME
TIME_SYSTEM    = UTC
MEAN_ELEMENT_THEORY = SGP/SGP4

EPOCH          = 2026-02-22T21:09:21.385728
MEAN_MOTION    = 14.16191356
ECCENTRICITY   = .00059618
INCLINATION    = 71.0101
RA_OF_ASC_NODE = 212.7132
ARG_OF_PERICENTER = 32.6511
MEAN_ANOMALY   = 327.4980

EPHEMERIS_TYPE = 0
CLASSIFICATION_TYPE = U
NORAD_CAT_ID   = 25407
ELEMENT_SET_NO = 999
REV_AT_EPOCH   = 42500
BSTAR          = .18964954E-4
MEAN_MOTION_DOT = -.1E-6
MEAN_MOTION_DDOT = 0

CCSDS_OMM_VERS = 2.0
CREATION_DATE  = 
ORIGINATOR     = 

OBJECT_NAME    = ISS (ZARYA)
OBJECT_ID      = 1998-067A
CENTER_NAME    = EARTH
REF_FRAME      = TEME
TIME_SYSTEM    = UTC
MEAN_ELEMENT_THEORY = SGP/SGP4

EPOCH          = 2026-02-22T17:36:16.529760
MEAN_MOTION    = 15.48216789
ECCENTRICITY   = .00084814
INCLINATION    = 51.6318
RA_OF_ASC_NODE = 146.2856
ARG_OF_PERICENTER = 123.1422
MEAN_ANOMALY   = 237.0381

EPHEMERIS_TYPE = 0
CLASSIFICATION_TYPE = U
NORAD_CAT_ID   = 25544
ELEMENT_SET_NO = 999
REV_AT_EPOCH   = 55401
BSTAR          = .26931019E-3
MEAN_MOTION_DOT = .14029E-3
MEAN_MOTION_DDOT = 0

CCSDS_OMM_VERS = 2.0
CREATION_DATE  = 
ORIGINATOR     = 

OBJECT_NAME    = CZ-4B R/B
OBJECT_ID      = 1999-025C
CENTER_NAME    = EARTH
REF_FRAME      = TEME
TIME_SYSTEM    = UTC
MEAN_ELEMENT_THEORY = SGP/SGP4

EPOCH          = 2026-02-22T17:14:48.299712
MEAN_MOTION    = 14.18262113
ECCENTRICITY   = .00375479
INCLINATION    = 98.6660
RA_OF_ASC_NODE = 98.3526
ARG_OF_PERICENTER = 29.5627
MEAN_ANOMALY   = 79.7911

EPHEMERIS_TYPE = 0
CLASSIFICATION_TYPE = U
NORAD_CAT_ID   = 25732
ELEMENT_SET_NO = 999
REV_AT_EPOCH   = 38604
BSTAR          = .33244201E-4
MEAN_MOTION_DOT = .26E-6
MEAN_MOTION_DDOT = 0

CCSDS_OMM_VERS = 2.0
CREATION_DATE  = 
ORIGINATOR     = 

OBJECT_NAME    = OKEAN-O
OBJECT_ID      = 1999-039A
CENTER_NAME    = EARTH
REF_FRAME      = TEME
TIME_SYSTEM    = UTC
MEAN_ELEMENT_THEORY = SGP/SGP4

EPOCH          = 2026-02-22T21:59:44.132928
MEAN_MOTION    = 14.80309496
ECCENTRICITY   = .00016371
INCLINATION    = 97.9477
RA_OF_ASC_NODE = 113.9558
ARG_OF_PERICENTER = 77.4875
MEAN_ANOMALY   = 282.6520

EPHEMERIS_TYPE = 0
CLASSIFICATION_TYPE = U
NORAD_CAT_ID   = 25860
ELEMENT_SET_NO = 999
REV_AT_EPOCH   = 43220
BSTAR          = .9644413E-4
MEAN_MOTION_DOT = .683E-5
MEAN_MOTION_DDOT = 0

CCSDS_OMM_VERS = 2.0
CREATION_DATE  = 
ORIGINATOR     = 

OBJECT_NAME    = SL-16 R/B
OBJECT_ID      = 1999-039B
CENTER_NAME    = EARTH
REF_FRAME      = TEME
TIME_SYSTEM    = UTC
MEAN_ELEMENT_THEORY = SGP/SGP4

EPOCH          = 2026-02-22T16:59:04.979328
MEAN_MOTION    = 14.81708598
ECCENTRICITY   = .00136782
INCLINATION    = 98.0001
RA_OF_ASC_NODE = 112.8242
ARG_OF_PERICENTER = 309.4863
MEAN_ANOMALY   = 50.5139

EPHEMERIS_TYPE = 0
CLASSIFICATION_TYPE = U
NORAD_CAT_ID   = 25861
ELEMENT_SET_NO = 999
REV_AT_EPOCH   = 43464
BSTAR          = .76300771E-4
MEAN_MOTION_DOT = .548E-5
MEAN_MOTION_DDOT = 0

CCSDS_OMM_VERS = 2.0
CREATION_DATE  = 
ORIGINATOR     = 

OBJECT_NAME    = DELTA 2 R/B
OBJECT_ID      = 1999-041E
CENTER_NAME    = EARTH
REF_FRAME      = TEME
TIME_SYSTEM    = UTC
MEAN_ELEMENT_THEORY = SGP/SGP4

EPOCH          = 2026-02-22T20:36:00.836928
MEAN_MOTION    = 14.11780962
ECCENTRICITY   = .05022086
INCLINATION    = 51.7660
RA_OF_ASC_NODE = 0.5113
ARG_OF_PERICENTER = 304.6365
MEAN_ANOMALY   = 50.8181

EPHEMERIS_TYPE = 0
CLASSIFICATION_TYPE = U
NORAD_CAT_ID   = 25876
ELEMENT_SET_NO = 999
REV_AT_EPOCH   = 36093
BSTAR          = .328246E-3
MEAN_MOTION_DOT = .1807E-4
MEAN_MOTION_DDOT = 0

CCSDS_OMM_VERS = 2.0
CREATION_DATE  = 
ORIGINATOR     = 

OBJECT_NAME    = HELIOS 1B
OBJECT_ID      = 1999-064A
CENTER_NAME    = EARTH
REF_FRAME      = TEME
TIME_SYSTEM    = UTC
MEAN_ELEMENT_THEORY = SGP/SGP4

EPOCH          = 2026-02-22T18:46:07.117248
MEAN_MOTION    = 14.87630971
ECCENTRICITY   = .00024475
INCLINATION    = 98.1711
RA_OF_ASC_NODE = 315.5863
ARG_OF_PERICENTER = 95.0929
MEAN_ANOMALY   = 265.0566

EPHEMERIS_TYPE = 0
CLASSIFICATION_TYPE = U
NORAD_CAT_ID   = 25977
ELEMENT_SET_NO = 999
REV_AT_EPOCH   = 68304
BSTAR          = .2028213E-3
MEAN_MOTION_DOT = .1786E-4
MEAN_MOTION_DDOT = 0

CCSDS_OMM_VERS = 2.0
CREATION_DATE  = 
ORIGINATOR     = 

OBJECT_NAME    = TERRA
OBJECT_ID      = 1999-068A
CENTER_NAME    = EARTH
REF_FRAME      = TEME
TIME_SYSTEM    = UTC
MEAN_ELEMENT_THEORY = SGP/SGP4

EPOCH          = 2026-02-22T22:38:24.501696
MEAN_MOTION    = 14.60997353
ECCENTRICITY   = .00016558
INCLINATION    = 97.9626
RA_OF_ASC_NODE = 107.9391
ARG_OF_PERICENTER = 191.6025
MEAN_ANOMALY   = 341.3580

EPHEMERIS_TYPE = 0
CLASSIFICATION_TYPE = U
NORAD_CAT_ID   = 25994
ELEMENT_SET_NO = 999
REV_AT_EPOCH   = 39292
BSTAR          = .99308567E-4
MEAN_MOTION_DOT = .443E-5
MEAN_MOTION_DDOT = 0

CCSDS_OMM_VERS = 2.0
CREATION_DATE  = 
ORIGINATOR     = 

OBJECT_NAME    = SL-16 R/B
OBJECT_ID      = 2000-006B
CENTER_NAME    = EARTH
REF_FRAME      = TEME
TIME_SYSTEM    = UTC
MEAN_ELEMENT_THEORY = SGP/SGP4

EPOCH          = 2026-02-22T21:26:00.698496
MEAN_MOTION    = 14.15819191
ECCENTRICITY   = .00177022
INCLINATION    = 71.0021
RA_OF_ASC_NODE = 128.9511
ARG_OF_PERICENTER = 210.5920
MEAN_ANOMALY   = 149.4172

EPHEMERIS_TYPE = 0
CLASSIFICATION_TYPE = U
NORAD_CAT_ID   = 26070
ELEMENT_SET_NO = 999
REV_AT_EPOCH   = 34646
BSTAR          = .11141413E-3
MEAN_MOTION_DOT = .172E-5
MEAN_MOTION_DDOT = 0

CCSDS_OMM_VERS = 2.0
CREATION_DATE  = 
ORIGINATOR     = 

OBJECT_NAME    = TITAN 4B R/B
OBJECT_ID      = 2000-047B
CENTER_NAME    = EARTH
REF_FRAME      = TEME
TIME_SYSTEM    = UTC
MEAN_ELEMENT_THEORY = SGP/SGP4

EPOCH          = 2026-02-22T22:05:08.023200
MEAN_MOTION    = 15.09415021
ECCENTRICITY   = .00377152
INCLINATION    = 67.9882
RA_OF_ASC_NODE = 82.0383
ARG_OF_PERICENTER = 53.1807
MEAN_ANOMALY   = 307.2791

EPHEMERIS_TYPE = 0
CLASSIFICATION_TYPE = U
NORAD_CAT_ID   = 26474
ELEMENT_SET_NO = 999
REV_AT_EPOCH   = 39068
BSTAR          = .23948241E-3
MEAN_MOTION_DOT = .3767E-4
MEAN_MOTION_DDOT = 0

CCSDS_OMM_VERS = 2.0
CREATION_DATE  = 
ORIGINATOR     = 

OBJECT_NAME    = ENVISAT
OBJECT_ID      = 2002-009A
CENTER_NAME    = EARTH
REF_FRAME      = TEME
TIME_SYSTEM    = UTC
MEAN_ELEMENT_THEORY = SGP/SGP4

EPOCH          = 2026-02-22T20:42:11.642400
MEAN_MOTION    = 14.39030798
ECCENTRICITY   = .00013533
INCLINATION    = 98.3702
RA_OF_ASC_NODE = 7.8154
ARG_OF_PERICENTER = 86.5125
MEAN_ANOMALY   = 289.3797

EPHEMERIS_TYPE = 0
CLASSIFICATION_TYPE = U
NORAD_CAT_ID   = 27386
ELEMENT_SET_NO = 999
REV_AT_EPOCH   = 25704
BSTAR          = .55327064E-4
MEAN_MOTION_DOT = .128E-5
MEAN_MOTION_DDOT = 0

